#dP2021  5  6  6  0  0.00000000      96 __u+U ITR00 EXT  IAC
## 2156 367200.00000000   900.00000000 59340 0.2500000000000
+  116   C06C07C08C09C10C11C12C13C14C16C19C20C21C22C23C24C25
+        C26C27C28C29C30C32C33C34C35C36C37C38C39C40C41C42C43
+        C44C45C46E01E02E03E04E05E07E08E09E11E12E13E14E15E18
+        E19E21E24E25E26E27E30E31E33E36G01G02G03G04G05G06G07
+        G08G09G10G12G13G14G15G16G17G18G19G20G21G22G23G24G25
+        G26G27G28G29G30G31G32J01J02J03R01R02R03R04R05R07R08
+        R09R11R12R13R14R15R16R17R18R19R20R21R22R24  0  0  0
++         9  9  7  8 10  8  8 10 10  7  8  9  8  7  8  9  8
++         7  8  8  7  8  8  8  8  8  7  9 10  9 11  9  9  9
++         9  9  9  7  7  8  7  6  8  8  6  7  8  7  9  7  7
++         7  7  6  7  8  7  6  7  6  8  8  7  8  6  8  8  7
++         7  6  5  7  8  7  8  7  7  7  6  8  8  8  9  7  6
++         6  7  7  7  7  7  7  9  8  9  9  8  9  8  8  8  9
++        11  9  8  9  9  8  7  7 10 10  8  8  9  9  0  0  0
%c M  cc GPS ccc cccc cccc cccc cccc ccccc ccccc ccccc ccccc
%c cc cc ccc ccc cccc cccc cccc cccc ccccc ccccc ccccc ccccc
%f  0.0000000  0.000000000  0.00000000000  0.000000000000000
%f  0.0000000  0.000000000  0.00000000000  0.000000000000000
%i    0    0    0    0      0      0      0      0         0
%i    0    0    0    0      0      0      0      0         0
/* IAC                                ULTRA-RAPID PREDICTION
/* S/V CLOCKS ARE ALIGNED TO GNSS TIME                      
/* G:C1WC2W R:C1PC2P E:C1XC5X C:C2IC6I J:C1CC2S             
/* PCV:IGS14_2148 OL/AL:FES2004  NONE     YN ORB:CoN CLK:CoN
*  2021 05 06  9 30  0.00000000
PC06 -22919.330147  22478.050372 -27109.530886    353.832178
PC07 -17452.567185  37462.714912  -6547.576145   -193.458768
PC08  -5202.966545  25028.079393  33735.208202   -890.307345
PC09  -6152.526295  24488.250478 -33522.673632    544.170923
PC10  -6491.491813  40815.829785   7248.641578    -46.557084
PC11 -27822.422194   1021.363542   1651.269559    324.902588
PC12 -21292.561905  -9752.716056 -15134.094255    895.877648
PC13   5897.488283  32880.885254  25977.050649    249.806831
PC14 -18930.030891   6483.219520  19457.451929    655.767892
PC16 -18940.173910  23326.101608 -29539.443669   -821.960887
PC19  18824.843024 -16107.400396 -12831.064771    824.554507
PC20  16486.723299   2114.842765 -22398.165504   -929.459448
PC21  -4093.818291 -20039.914449  19019.435935   -943.962666
PC22  10383.598167 -25535.253900   4465.750134   -959.161899
PC23  -1420.898069  21805.168296 -17353.106610   -901.014685
PC24 -19888.389907 -13417.326372 -14243.997829   -839.731893
PC25 -14671.941702   7046.212065 -22672.049207   -921.408557
PC26 -14053.020290 -24049.658508   1362.250871    910.989274
PC27  12513.925842  14108.242633  20541.350885    527.080020
PC28  -8851.829505  15067.662953  21755.539086    -77.784431
PC29  24670.426212  -8142.999113 -10191.451294    388.473988
PC30  26449.071397   4235.258212   7773.479035    465.660294
PC32   4241.575530  19990.025959 -18976.734749   -937.256709
PC33 -18778.918387  16078.424563  12937.737941   -940.208401
PC34 -26726.065362  -3861.098509  -7108.441391   -679.808907
PC35   8659.259275 -15378.914988 -21615.565130   -293.888634
PC36  15046.523842  -6319.975140  22659.030585   -727.725862
PC37  12970.389606  24618.517442  -2204.682821   -899.254794
PC38  -2539.055963  29164.553697  30414.773810    146.887941
PC39 -14415.918195  24905.615736 -30848.098446     30.863105
PC40 -14041.108172  39395.184046   4727.637042    158.185058
PC41 -10543.278035  25504.578759  -4090.342333   -945.142422
PC42 -16218.236596  -2996.213615  22557.411425   -917.333784
PC43 -25006.339985   7760.223738   9683.218776   -717.658169
PC44 -12821.826531 -13871.597574 -20563.940559    173.770397
PC45   1221.937896 -21808.795183  17360.201900    432.718728
PC46  19908.837491  12574.525379  15005.201274    283.715659
PE01  -3528.098293 -29294.671643  -2328.532328  -1101.923844
PE02   3602.098347  29286.822237   2437.865641    217.141763
PE03  -1080.499348  19630.758086 -22118.631940   -427.891185
PE04 -17646.749913  -7399.671976  22594.635451   -765.051862
PE05 -19484.324021  20533.589432  -8642.536545   -283.182392
PE07  26316.303799  -9473.825371  -9694.119946   -534.314015
PE08  17865.190441   6916.630880 -22560.704969   6006.537823
PE09 -26236.283987   9750.913226   9616.622221   5677.167400
PE11 -25774.010584  -1853.501570  14448.462638   6013.873800
PE12 -24991.001831 -15227.456280  -4533.775318   5224.487249
PE13  25908.924434   2116.631022 -14143.835034    416.013777
PE14   4606.313184 -22119.413219 -23483.562173  -1421.433769
PE15  25044.578513  15107.415585   4518.155201    815.757956
PE18  -1290.268164  15549.960433  17397.964728  -1555.622591
PE19   3505.335922 -20307.338428  21259.421667    269.959884
PE21   8511.983968 -24005.599275  15075.393387   -663.333044
PE24 -16335.662619   3641.054358 -24429.902554   -885.172673
PE25  -8623.999074  23873.413879 -15227.904720   -532.996135
PE26  10843.770048 -12663.069836 -24457.005610   1842.788032
PE27  16148.390033  -4596.289274  24376.730946    -26.416589
PE30  13854.483233  18315.264778  18671.236808   2967.878080
PE31 -14234.936488 -17368.874897 -19278.582390   -480.875974
PE33  -9457.785701 -19179.266980 -20470.239835   -468.293509
PE36 -11530.691380  12087.070369  24438.750028   -203.316201
PG01 -22314.170651 -14245.498985   3575.055431    696.980822
PG02   7531.172983  19231.306976  17325.650245   -601.875779
PG03 -13057.052455 -10192.128915  20704.317842   -156.382082
PG04 -20949.080524  -3900.044143  15900.732672   -195.118935
PG05   5981.573032  23242.017856 -11332.140612    -41.131950
PG06  -4726.534503  14573.426750  21748.327306     13.155508
PG07 -21707.594019  -3299.077480 -14939.746313    142.978464
PG08 -13589.923209  -9636.020354 -20761.669311    -20.157557
PG09 -25009.406157   5693.972570   6890.910730   -343.733871
PG10  11652.369424 -19530.348329 -13377.910436   -116.370702
PG12  11064.739941  13479.961259  19822.975997    -37.335185
PG13   3921.182463  14601.347747 -21968.894934    128.594053
PG14 -12968.246585  18702.594354 -13682.629644     89.290998
PG15  15175.173904   8898.768885 -20345.543201   -151.309749
PG16   -402.247130 -25020.646156  -8419.107861   -320.798722
PG17 -20948.888086  13823.300780   9113.014785    437.925131
PG18  19546.544871   -329.399155 -18018.511295    350.959582
PG19 -14777.191271  15322.554529  15525.340608     -3.621753
PG20  14085.967606  12477.417496 -18845.278764    522.465489
PG21 -20907.354894 -16310.137539  -3295.148462    116.166095
PG22 -10759.261568 -19169.192803  15229.931470   -621.107029
PG23  14908.359648  -8910.888259 -20100.041879    108.871613
PG24  21527.198780  15826.966783  -2006.775996     60.010118
PG25  15212.991962   -828.096515  21471.913078    132.006594
PG26   3462.251121 -26118.840198   1841.119783     81.671704
PG27  -1370.964605 -15382.124602 -21737.556476   -125.262799
PG28 -11097.044938  22371.108562  -8794.879184    575.729910
PG29  25387.616943  -3750.103620   6888.106708   -342.299225
PG30 -13335.520006   9130.975355 -21047.528350   -422.408241
PG31   2636.061230 -16418.328685  20525.316701   -115.701357
PG32  18653.634282 -15845.603613  10209.758144     21.633438
PJ01 -34515.734846  23950.444602   8527.338170   -374.887350
PJ02 -18780.275770  28578.609656 -20259.018822      7.337984
PJ03 -30350.124028  24380.254679  21298.868067     -4.833886
PR01  11508.534302 -21189.347911   8354.737465     79.007225
PR02  -3897.646749 -11813.318349  22306.784194    477.541705
PR03 -15339.929442   3605.797442  20123.490896     35.445629
PR04 -17950.726114  16838.424753   6742.787748     85.552746
PR05 -10726.515299  20658.890084 -10439.040760     71.226812
PR07  15565.519808  -4171.464993 -19715.182203    -42.495485
PR08  17906.886127 -16919.061129  -6519.153400    -58.873088
PR09  11586.041248  21994.781545   5563.914713     -8.515018
PR11   7889.909879  -8946.193520  22557.315816     -2.487578
PR12  -2417.146538 -22352.541500  12054.465945    226.638192
PR13 -11351.171547 -22305.935248  -4948.372658    -54.364495
PR14 -13580.640376  -8892.852270 -19672.459443     63.953209
PR15  -7889.733073   9326.406722 -22375.322077    103.984999
PR16   3507.364620  22780.531998 -11092.606671    -14.741454
PR17 -25019.832003  -4744.889482  -1136.884481    421.712321
PR18 -20446.828708   3244.415140  14952.887363     75.552796
PR19  -6054.383355   9201.114506  23003.553410   -142.597388
PR20  14920.952991  10942.437935  17537.100766    -48.604015
PR21  25155.497534   4291.876182   -100.794065   -206.902030
PR22  19619.151233  -3650.728292 -15841.510917   -111.350047
PR24 -15693.672539 -10941.219547 -16855.553242     41.567242
EOF
